{
    "links": {
        "self": "http://www.neowsapp.com/rest/v1/neo/3682531?api_key=iIulBulltgU6a56xZRHN4H3l9WmuAYTsLGpBGhQ2"
    },
    "id": "3682531",
    "neo_reference_id": "3682531",
    "name": "(2014 QT168)",
    "designation": "2014 QT168",
    "nasa_jpl_url": "http://ssd.jpl.nasa.gov/sbdb.cgi?sstr=3682531",
    "absolute_magnitude_h": 23.0,
    "estimated_diameter": {
        "kilometers": {
            "estimated_diameter_min": 0.0667659413,
            "estimated_diameter_max": 0.1492931834
        },
        "meters": {
            "estimated_diameter_min": 66.7659413495,
            "estimated_diameter_max": 149.2931834393
        },
        "miles": {
            "estimated_diameter_min": 0.0414864197,
            "estimated_diameter_max": 0.0927664547
        },
        "feet": {
            "estimated_diameter_min": 219.0483710172,
            "estimated_diameter_max": 489.807047955
        }
    },
    "is_potentially_hazardous_asteroid": false,
    "close_approach_data": [
        {
            "close_approach_date": "2014-09-15",
            "close_approach_date_full": "2014-Sep-15 18:27",
            "epoch_date_close_approach": 1410805620000,
            "relative_velocity": {
                "kilometers_per_second": "3.7194244299",
                "kilometers_per_hour": "13389.927947547",
                "miles_per_hour": "8319.9805071856"
            },
            "miss_distance": {
                "astronomical": "0.1788283024",
                "lunar": "69.5642096336",
                "kilometers": "26752333.134755888",
                "miles": "16623128.9852037344"
            },
            "orbiting_body": "Earth"
        },
        {
            "close_approach_date": "2049-09-19",
            "close_approach_date_full": "2049-Sep-19 20:46",
            "epoch_date_close_approach": 2515697160000,
            "relative_velocity": {
                "kilometers_per_second": "4.3461295386",
                "kilometers_per_hour": "15646.0663389799",
                "miles_per_hour": "9721.8571649067"
            },
            "miss_distance": {
                "astronomical": "0.2232553997",
                "lunar": "86.8463504833",
                "kilometers": "33398532.261118639",
                "miles": "20752885.6229656582"
            },
            "orbiting_body": "Earth"
        }
    ],
    "orbital_data": {
        "orbit_id": "14",
        "orbit_determination_date": "2017-04-06 08:39:13",
        "first_observation_date": "2014-08-22",
        "last_observation_date": "2014-10-18",
        "data_arc_in_days": 57,
        "observations_used": 39,
        "orbit_uncertainty": "6",
        "minimum_orbit_intersection": ".177975",
        "jupiter_tisserand_invariant": "3.809",
        "epoch_osculation": "2459000.5",
        "eccentricity": ".3895063031387861",
        "semi_major_axis": "1.934196422700416",
        "inclination": "4.931640580942158",
        "ascending_node_longitude": "162.0154930497214",
        "orbital_period": "982.5378520312141",
        "perihelion_distance": "1.180814724550112",
        "perihelion_argument": "195.6864841919933",
        "aphelion_distance": "2.687578120850719",
        "perihelion_time": "2458888.278036431540",
        "mean_anomaly": "41.11791398278072",
        "mean_motion": ".3663980977992522",
        "equinox": "J2000",
        "orbit_class": {
            "orbit_class_type": "AMO",
            "orbit_class_description": "Near-Earth asteroid orbits similar to that of 1221 Amor",
            "orbit_class_range": "1.017 AU < q (perihelion) < 1.3 AU"
        }
    },
    "is_sentry_object": false
}